{
  "type": "FeatureCollection",
  "features": [
    {
      "type": "Feature",
      "properties": {
        "norad_id": 40810,
        "name": "COSMOS 2251 DEB",
        "group": "cosmos-2251-debris",
        "lat": 61.1195374987355,
        "lon": -150.8014229772488,
        "alt_km": 692.4292461975638,
        "timestamp": "2025-12-20T05:41:50.429793+00:00",
        "meta_object_name": "COSMOS 2251 DEB",
        "meta_object_id": "1993-036BWP",
        "meta_epoch": "2025-12-19T04:29:06.134784",
        "meta_mean_motion": 14.58759616,
        "meta_eccentricity": 0.00182272,
        "meta_inclination": 74.037,
        "meta_ra_of_asc_node": 62.4589,
        "meta_arg_of_pericenter": 213.6462,
        "meta_mean_anomaly": 146.3547,
        "meta_ephemeris_type": 0,
        "meta_classification_type": "U",
        "meta_norad_cat_id": 40810,
        "meta_element_set_no": 999,
        "meta_rev_at_epoch": 61777,
        "meta_bstar": 0.00051940832,
        "meta_mean_motion_dot": 2.403e-05,
        "meta_mean_motion_ddot": 0,
        "tle_line1": "1 40810U 93036BWP 25353.18687656  .00002403  00000+0  51941-3 0  9990",
        "tle_line2": "2 40810  74.0370  62.4589 0018227 213.6462 146.3547 14.58759616617774"
      },
      "geometry": {
        "type": "Point",
        "coordinates": [
          -150.8014229772488,
          61.1195374987355
        ]
      }
    },
    {
      "type": "Feature",
      "properties": {
        "norad_id": 46271,
        "name": "COSMOS 2251 DEB",
        "group": "cosmos-2251-debris",
        "lat": 22.236544369538333,
        "lon": -122.6033654377457,
        "alt_km": 695.145217358323,
        "timestamp": "2025-12-20T05:41:50.429803+00:00",
        "meta_object_name": "COSMOS 2251 DEB",
        "meta_object_id": "1993-036BWT",
        "meta_epoch": "2025-12-19T22:21:35.329824",
        "meta_mean_motion": 14.51444335,
        "meta_eccentricity": 0.00398695,
        "meta_inclination": 74.0479,
        "meta_ra_of_asc_node": 64.6869,
        "meta_arg_of_pericenter": 184.8218,
        "meta_mean_anomaly": 175.2565,
        "meta_ephemeris_type": 0,
        "meta_classification_type": "U",
        "meta_norad_cat_id": 46271,
        "meta_element_set_no": 999,
        "meta_rev_at_epoch": 84746,
        "meta_bstar": 0.00020356752,
        "meta_mean_motion_dot": 7.93e-06,
        "meta_mean_motion_ddot": 0,
        "tle_line1": "1 46271U 93036BWT 25353.93165891  .00000793  00000+0  20357-3 0  9999",
        "tle_line2": "2 46271  74.0479  64.6869 0039869 184.8218 175.2565 14.51444335847463"
      },
      "geometry": {
        "type": "Point",
        "coordinates": [
          -122.6033654377457,
          22.236544369538333
        ]
      }
    },
    {
      "type": "Feature",
      "properties": {
        "norad_id": 46430,
        "name": "COSMOS 2251 DEB",
        "group": "cosmos-2251-debris",
        "lat": -37.14287279198755,
        "lon": 174.75384838054205,
        "alt_km": 672.4979314179482,
        "timestamp": "2025-12-20T05:41:50.429813+00:00",
        "meta_object_name": "COSMOS 2251 DEB",
        "meta_object_id": "1993-036BWU",
        "meta_epoch": "2025-12-19T07:10:40.968192",
        "meta_mean_motion": 14.51392906,
        "meta_eccentricity": 0.0103211,
        "meta_inclination": 73.9139,
        "meta_ra_of_asc_node": 343.9071,
        "meta_arg_of_pericenter": 263.0684,
        "meta_mean_anomaly": 95.8727,
        "meta_ephemeris_type": 0,
        "meta_classification_type": "U",
        "meta_norad_cat_id": 46430,
        "meta_element_set_no": 999,
        "meta_rev_at_epoch": 79778,
        "meta_bstar": 0.0013871,
        "meta_mean_motion_dot": 5.902e-05,
        "meta_mean_motion_ddot": 0,
        "tle_line1": "1 46430U 93036BWU 25353.29908528  .00005902  00000+0  13871-2 0  9996",
        "tle_line2": "2 46430  73.9139 343.9071 0103211 263.0684  95.8727 14.51392906797781"
      },
      "geometry": {
        "type": "Point",
        "coordinates": [
          174.75384838054205,
          -37.14287279198755
        ]
      }
    },
    {
      "type": "Feature",
      "properties": {
        "norad_id": 46432,
        "name": "COSMOS 2251 DEB",
        "group": "cosmos-2251-debris",
        "lat": 49.18741987114519,
        "lon": -100.09290205046248,
        "alt_km": 1086.6707627065189,
        "timestamp": "2025-12-20T05:41:50.429824+00:00",
        "meta_object_name": "COSMOS 2251 DEB",
        "meta_object_id": "1993-036BWW",
        "meta_epoch": "2025-12-16T14:54:01.415808",
        "meta_mean_motion": 13.36645779,
        "meta_eccentricity": 0.04740577,
        "meta_inclination": 73.8726,
        "meta_ra_of_asc_node": 105.1782,
        "meta_arg_of_pericenter": 222.0894,
        "meta_mean_anomaly": 155.0222,
        "meta_ephemeris_type": 0,
        "meta_classification_type": "U",
        "meta_norad_cat_id": 46432,
        "meta_element_set_no": 999,
        "meta_rev_at_epoch": 67018,
        "meta_bstar": 0.0010887976,
        "meta_mean_motion_dot": 1.051e-05,
        "meta_mean_motion_ddot": 0,
        "tle_line1": "1 46432U 93036BWW 25350.62084972  .00001051  00000+0  10888-2 0  9996",
        "tle_line2": "2 46432  73.8726 105.1782 0474057 222.0894 155.0222 13.36645779670182"
      },
      "geometry": {
        "type": "Point",
        "coordinates": [
          -100.09290205046248,
          49.18741987114519
        ]
      }
    },
    {
      "type": "Feature",
      "properties": {
        "norad_id": 47045,
        "name": "COSMOS 2251 DEB",
        "group": "cosmos-2251-debris",
        "lat": 51.841299496159714,
        "lon": 156.6941684995446,
        "alt_km": 773.5928736974038,
        "timestamp": "2025-12-20T05:41:50.429834+00:00",
        "meta_object_name": "COSMOS 2251 DEB",
        "meta_object_id": "1993-036BWZ",
        "meta_epoch": "2025-12-08T18:12:30.966336",
        "meta_mean_motion": 14.3889696,
        "meta_eccentricity": 0.00302024,
        "meta_inclination": 74.0568,
        "meta_ra_of_asc_node": 156.4972,
        "meta_arg_of_pericenter": 298.2595,
        "meta_mean_anomaly": 80.2379,
        "meta_ephemeris_type": 0,
        "meta_classification_type": "U",
        "meta_norad_cat_id": 47045,
        "meta_element_set_no": 999,
        "meta_rev_at_epoch": 7748,
        "meta_bstar": 0.00016053941,
        "meta_mean_motion_dot": 4.71e-06,
        "meta_mean_motion_ddot": 0,
        "tle_line1": "1 47045U 93036BWZ 25342.75869174  .00000471  00000+0  16054-3 0  9994",
        "tle_line2": "2 47045  74.0568 156.4972 0030202 298.2595  80.2379 14.38896960 77482"
      },
      "geometry": {
        "type": "Point",
        "coordinates": [
          156.6941684995446,
          51.841299496159714
        ]
      }
    },
    {
      "type": "Feature",
      "properties": {
        "norad_id": 47048,
        "name": "COSMOS 2251 DEB",
        "group": "cosmos-2251-debris",
        "lat": -17.092765414155462,
        "lon": -60.07152057592054,
        "alt_km": 802.5273630654583,
        "timestamp": "2025-12-20T05:41:50.429844+00:00",
        "meta_object_name": "COSMOS 2251 DEB",
        "meta_object_id": "1993-036BXC",
        "meta_epoch": "2025-12-19T13:47:33.177120",
        "meta_mean_motion": 14.52356803,
        "meta_eccentricity": 0.0132576,
        "meta_inclination": 73.9784,
        "meta_ra_of_asc_node": 306.2511,
        "meta_arg_of_pericenter": 132.3729,
        "meta_mean_anomaly": 347.2197,
        "meta_ephemeris_type": 0,
        "meta_classification_type": "U",
        "meta_norad_cat_id": 47048,
        "meta_element_set_no": 999,
        "meta_rev_at_epoch": 59789,
        "meta_bstar": 0.00066595,
        "meta_mean_motion_dot": 3.012e-05,
        "meta_mean_motion_ddot": 0,
        "tle_line1": "1 47048U 93036BXC 25353.57468955  .00003012  00000+0  66595-3 0  9990",
        "tle_line2": "2 47048  73.9784 306.2511 0132576 132.3729 347.2197 14.52356803597890"
      },
      "geometry": {
        "type": "Point",
        "coordinates": [
          -60.07152057592054,
          -17.092765414155462
        ]
      }
    },
    {
      "type": "Feature",
      "properties": {
        "norad_id": 47051,
        "name": "COSMOS 2251 DEB",
        "group": "cosmos-2251-debris",
        "lat": 13.957844529885174,
        "lon": -12.723682602813657,
        "alt_km": 1120.9318773129144,
        "timestamp": "2025-12-20T05:41:50.429855+00:00",
        "meta_object_name": "COSMOS 2251 DEB",
        "meta_object_id": "1993-036BXF",
        "meta_epoch": "2025-12-13T06:55:53.868288",
        "meta_mean_motion": 13.67117141,
        "meta_eccentricity": 0.03401033,
        "meta_inclination": 74.1001,
        "meta_ra_of_asc_node": 182.6908,
        "meta_arg_of_pericenter": 296.1774,
        "meta_mean_anomaly": 246.9893,
        "meta_ephemeris_type": 0,
        "meta_classification_type": "U",
        "meta_norad_cat_id": 47051,
        "meta_element_set_no": 999,
        "meta_rev_at_epoch": 59945,
        "meta_bstar": 0.0019326179,
        "meta_mean_motion_dot": 2.391e-05,
        "meta_mean_motion_ddot": 0,
        "tle_line1": "1 47051U 93036BXF 25347.28881792  .00002391  00000+0  19326-2 0  9991",
        "tle_line2": "2 47051  74.1001 182.6908 0340103 296.1774 246.9893 13.67117141599458"
      },
      "geometry": {
        "type": "Point",
        "coordinates": [
          -12.723682602813657,
          13.957844529885174
        ]
      }
    }
  ]
}